[
  {
    "COMMENT": "GENERATED VIA SPACETRACK.ORG API",
    "ORIGINATOR": "18 SPCS",
    "NORAD_CAT_ID": "46984",
    "OBJECT_NAME": "S6 MICHAEL FREILICH",
    "OBJECT_TYPE": "PAYLOAD",
    "CLASSIFICATION_TYPE": "U",
    "INTLDES": "20086A",
    "EPOCH": "2023-07-12 17:49:10",
    "EPOCH_MICROSECONDS": "872480",
    "MEAN_MOTION": "12.80930418",
    "ECCENTRICITY": "0.0008102",
    "INCLINATION": "66.0385",
    "RA_OF_ASC_NODE": "198.3768",
    "ARG_OF_PERICENTER": "269.2373",
    "MEAN_ANOMALY": "90.7714",
    "EPHEMERIS_TYPE": "0",
    "ELEMENT_SET_NO": "999",
    "REV_AT_EPOCH": "12335",
    "BSTAR": "0.00015046",
    "MEAN_MOTION_DOT": "-0.00000026",
    "MEAN_MOTION_DDOT": "0",
    "FILE": "3956393",
    "TLE_LINE0": "0 S6 MICHAEL FREILICH",
    "TLE_LINE1": "1 46984U 20086A   23193.74248695 -.00000026  00000-0  15046-3 0  9998",
    "TLE_LINE2": "2 46984  66.0385 198.3768 0008102 269.2373  90.7714 12.80930418123354",
    "OBJECT_ID": "2020-086A",
    "OBJECT_NUMBER": "46984",
    "SEMIMAJOR_AXIS": "7715.868",
    "PERIOD": "112.418",
    "APOGEE": "1343.985",
    "PERIGEE": "1331.482",
    "DECAYED": "0"
  },
  {
    "COMMENT": "GENERATED VIA SPACETRACK.ORG API",
    "ORIGINATOR": "18 SPCS",
    "NORAD_CAT_ID": "46984",
    "OBJECT_NAME": "S6 MICHAEL FREILICH",
    "OBJECT_TYPE": "PAYLOAD",
    "CLASSIFICATION_TYPE": "U",
    "INTLDES": "20086A",
    "EPOCH": "2023-07-14 09:10:11",
    "EPOCH_MICROSECONDS": "773344",
    "MEAN_MOTION": "12.80930566",
    "ECCENTRICITY": "0.0008102",
    "INCLINATION": "66.0387",
    "RA_OF_ASC_NODE": "194.9713",
    "ARG_OF_PERICENTER": "269.2297",
    "MEAN_ANOMALY": "90.779",
    "EPHEMERIS_TYPE": "0",
    "ELEMENT_SET_NO": "999",
    "REV_AT_EPOCH": "12356",
    "BSTAR": "0.00016678",
    "MEAN_MOTION_DOT": "-0.00000023",
    "MEAN_MOTION_DDOT": "0",
    "FILE": "3957543",
    "TLE_LINE0": "0 S6 MICHAEL FREILICH",
    "TLE_LINE1": "1 46984U 20086A   23195.38208071 -.00000023  00000-0  16678-3 0  9993",
    "TLE_LINE2": "2 46984  66.0387 194.9713 0008102 269.2297  90.7790 12.80930566123564",
    "OBJECT_ID": "2020-086A",
    "OBJECT_NUMBER": "46984",
    "SEMIMAJOR_AXIS": "7715.868",
    "PERIOD": "112.418",
    "APOGEE": "1343.984",
    "PERIGEE": "1331.481",
    "DECAYED": "0"
  },
  {
    "COMMENT": "GENERATED VIA SPACETRACK.ORG API",
    "ORIGINATOR": "18 SPCS",
    "NORAD_CAT_ID": "46984",
    "OBJECT_NAME": "S6 MICHAEL FREILICH",
    "OBJECT_TYPE": "PAYLOAD",
    "CLASSIFICATION_TYPE": "U",
    "INTLDES": "20086A",
    "EPOCH": "2023-07-15 09:31:46",
    "EPOCH_MICROSECONDS": "616448",
    "MEAN_MOTION": "12.80930617",
    "ECCENTRICITY": "0.0008096",
    "INCLINATION": "66.0388",
    "RA_OF_ASC_NODE": "192.8631",
    "ARG_OF_PERICENTER": "269.2114",
    "MEAN_ANOMALY": "90.7974",
    "EPHEMERIS_TYPE": "0",
    "ELEMENT_SET_NO": "999",
    "REV_AT_EPOCH": "12369",
    "BSTAR": "0.00015093",
    "MEAN_MOTION_DOT": "-0.00000026",
    "MEAN_MOTION_DDOT": "0",
    "FILE": "3958509",
    "TLE_LINE0": "0 S6 MICHAEL FREILICH",
    "TLE_LINE1": "1 46984U 20086A   23196.39706732 -.00000026  00000-0  15093-3 0  9995",
    "TLE_LINE2": "2 46984  66.0388 192.8631 0008096 269.2114  90.7974 12.80930617123696",
    "OBJECT_ID": "2020-086A",
    "OBJECT_NUMBER": "46984",
    "SEMIMAJOR_AXIS": "7715.868",
    "PERIOD": "112.418",
    "APOGEE": "1343.979",
    "PERIGEE": "1331.486",
    "DECAYED": "0"
  },
  {
    "COMMENT": "GENERATED VIA SPACETRACK.ORG API",
    "ORIGINATOR": "18 SPCS",
    "NORAD_CAT_ID": "46984",
    "OBJECT_NAME": "S6 MICHAEL FREILICH",
    "OBJECT_TYPE": "PAYLOAD",
    "CLASSIFICATION_TYPE": "U",
    "INTLDES": "20086A",
    "EPOCH": "2023-07-16 17:23:04",
    "EPOCH_MICROSECONDS": "475040",
    "MEAN_MOTION": "12.80930671",
    "ECCENTRICITY": "0.0008088",
    "INCLINATION": "66.0389",
    "RA_OF_ASC_NODE": "190.1062",
    "ARG_OF_PERICENTER": "269.1834",
    "MEAN_ANOMALY": "90.8254",
    "EPHEMERIS_TYPE": "0",
    "ELEMENT_SET_NO": "999",
    "REV_AT_EPOCH": "12386",
    "BSTAR": "0.00007278",
    "MEAN_MOTION_DOT": "-0.00000044",
    "MEAN_MOTION_DDOT": "0",
    "FILE": "3959692",
    "TLE_LINE0": "0 S6 MICHAEL FREILICH",
    "TLE_LINE1": "1 46984U 20086A   23197.72435735 -.00000044  00000-0  72780-4 0  9992",
    "TLE_LINE2": "2 46984  66.0389 190.1062 0008088 269.1834  90.8254 12.80930671123866",
    "OBJECT_ID": "2020-086A",
    "OBJECT_NUMBER": "46984",
    "SEMIMAJOR_AXIS": "7715.867",
    "PERIOD": "112.418",
    "APOGEE": "1343.973",
    "PERIGEE": "1331.492",
    "DECAYED": "0"
  },
  {
    "COMMENT": "GENERATED VIA SPACETRACK.ORG API",
    "ORIGINATOR": "18 SPCS",
    "NORAD_CAT_ID": "46984",
    "OBJECT_NAME": "S6 MICHAEL FREILICH",
    "OBJECT_TYPE": "PAYLOAD",
    "CLASSIFICATION_TYPE": "U",
    "INTLDES": "20086A",
    "EPOCH": "2023-07-18 06:51:39",
    "EPOCH_MICROSECONDS": "601728",
    "MEAN_MOTION": "12.80930683",
    "ECCENTRICITY": "0.0008091",
    "INCLINATION": "66.039",
    "RA_OF_ASC_NODE": "186.8629",
    "ARG_OF_PERICENTER": "269.1223",
    "MEAN_ANOMALY": "90.8865",
    "EPHEMERIS_TYPE": "0",
    "ELEMENT_SET_NO": "999",
    "REV_AT_EPOCH": "12406",
    "BSTAR": "0.000012263",
    "MEAN_MOTION_DOT": "-0.00000058",
    "MEAN_MOTION_DDOT": "0",
    "FILE": "3961171",
    "TLE_LINE0": "0 S6 MICHAEL FREILICH",
    "TLE_LINE1": "1 46984U 20086A   23199.28587502 -.00000058  00000-0  12263-4 0  9990",
    "TLE_LINE2": "2 46984  66.0390 186.8629 0008091 269.1223  90.8865 12.80930683124069",
    "OBJECT_ID": "2020-086A",
    "OBJECT_NUMBER": "46984",
    "SEMIMAJOR_AXIS": "7715.867",
    "PERIOD": "112.418",
    "APOGEE": "1343.975",
    "PERIGEE": "1331.489",
    "DECAYED": "0"
  },
  {
    "COMMENT": "GENERATED VIA SPACETRACK.ORG API",
    "ORIGINATOR": "18 SPCS",
    "NORAD_CAT_ID": "46984",
    "OBJECT_NAME": "S6 MICHAEL FREILICH",
    "OBJECT_TYPE": "PAYLOAD",
    "CLASSIFICATION_TYPE": "U",
    "INTLDES": "20086A",
    "EPOCH": "2023-07-19 09:05:40",
    "EPOCH_MICROSECONDS": "193088",
    "MEAN_MOTION": "12.80930682",
    "ECCENTRICITY": "0.0008101",
    "INCLINATION": "66.0391",
    "RA_OF_ASC_NODE": "184.5926",
    "ARG_OF_PERICENTER": "269.1284",
    "MEAN_ANOMALY": "90.8803",
    "EPHEMERIS_TYPE": "0",
    "ELEMENT_SET_NO": "999",
    "REV_AT_EPOCH": "12420",
    "BSTAR": "-0.000014303",
    "MEAN_MOTION_DOT": "-0.00000064",
    "MEAN_MOTION_DDOT": "0",
    "FILE": "3962012",
    "TLE_LINE0": "0 S6 MICHAEL FREILICH",
    "TLE_LINE1": "1 46984U 20086A   23200.37893742 -.00000064  00000-0 -14303-4 0  9994",
    "TLE_LINE2": "2 46984  66.0391 184.5926 0008101 269.1284  90.8803 12.80930682124201",
    "OBJECT_ID": "2020-086A",
    "OBJECT_NUMBER": "46984",
    "SEMIMAJOR_AXIS": "7715.867",
    "PERIOD": "112.418",
    "APOGEE": "1343.983",
    "PERIGEE": "1331.482",
    "DECAYED": "0"
  },
  {
    "COMMENT": "GENERATED VIA SPACETRACK.ORG API",
    "ORIGINATOR": "18 SPCS",
    "NORAD_CAT_ID": "46984",
    "OBJECT_NAME": "S6 MICHAEL FREILICH",
    "OBJECT_TYPE": "PAYLOAD",
    "CLASSIFICATION_TYPE": "U",
    "INTLDES": "20086A",
    "EPOCH": "2023-07-21 09:48:49",
    "EPOCH_MICROSECONDS": "876704",
    "MEAN_MOTION": "12.80930642",
    "ECCENTRICITY": "0.0008095",
    "INCLINATION": "66.0392",
    "RA_OF_ASC_NODE": "180.3763",
    "ARG_OF_PERICENTER": "269.1295",
    "MEAN_ANOMALY": "90.8793",
    "EPHEMERIS_TYPE": "0",
    "ELEMENT_SET_NO": "999",
    "REV_AT_EPOCH": "12446",
    "BSTAR": "-0.000026634",
    "MEAN_MOTION_DOT": "-0.00000067",
    "MEAN_MOTION_DDOT": "0",
    "FILE": "3963457",
    "TLE_LINE0": "0 S6 MICHAEL FREILICH",
    "TLE_LINE1": "1 46984U 20086A   23202.40891061 -.00000067  00000-0 -26634-4 0  9995",
    "TLE_LINE2": "2 46984  66.0392 180.3763 0008095 269.1295  90.8793 12.80930642124461",
    "OBJECT_ID": "2020-086A",
    "OBJECT_NUMBER": "46984",
    "SEMIMAJOR_AXIS": "7715.868",
    "PERIOD": "112.418",
    "APOGEE": "1343.979",
    "PERIGEE": "1331.487",
    "DECAYED": "0"
  },
  {
    "COMMENT": "GENERATED VIA SPACETRACK.ORG API",
    "ORIGINATOR": "18 SPCS",
    "NORAD_CAT_ID": "46984",
    "OBJECT_NAME": "S6 MICHAEL FREILICH",
    "OBJECT_TYPE": "PAYLOAD",
    "CLASSIFICATION_TYPE": "U",
    "INTLDES": "20086A",
    "EPOCH": "2023-07-24 07:08:42",
    "EPOCH_MICROSECONDS": "877536",
    "MEAN_MOTION": "12.80930733",
    "ECCENTRICITY": "0.0008099",
    "INCLINATION": "66.0396",
    "RA_OF_ASC_NODE": "174.3763",
    "ARG_OF_PERICENTER": "269.1018",
    "MEAN_ANOMALY": "90.9069",
    "EPHEMERIS_TYPE": "0",
    "ELEMENT_SET_NO": "999",
    "REV_AT_EPOCH": "12470",
    "BSTAR": "0.000076405",
    "MEAN_MOTION_DOT": "-0.00000043",
    "MEAN_MOTION_DDOT": "0",
    "FILE": "3963756",
    "TLE_LINE0": "0 S6 MICHAEL FREILICH",
    "TLE_LINE1": "1 46984U 20086A   23205.29771849 -.00000043  00000-0  76405-4 0  9990",
    "TLE_LINE2": "2 46984  66.0396 174.3763 0008099 269.1018  90.9069 12.80930733124700",
    "OBJECT_ID": "2020-086A",
    "OBJECT_NUMBER": "46984",
    "SEMIMAJOR_AXIS": "7715.867",
    "PERIOD": "112.418",
    "APOGEE": "1343.981",
    "PERIGEE": "1331.483",
    "DECAYED": "0"
  }
]